STARLINK-5867           
1 55918U 23037E   25348.23003977 -.00003685  00000+0 -30136-3 0  9995
2 55918  69.9997 160.0316 0003548 268.6340  91.4413 14.98303781150681
STARLINK-5871           
1 55919U 23037F   25348.22184612 -.00000950  00000+0 -71821-4 0  9990
2 55919  69.9989 160.0012 0002920 269.3737  90.7087 14.98332258150687
STARLINK-5862           
1 55920U 23037G   25348.15887096  .00000048  00000+0  11802-4 0  9999
2 55920  69.9996 140.3060 0003106 270.1563  89.9240 14.98326974151168
STARLINK-5861           
1 55921U 23037H   25347.87118126 -.00000014  00000+0  66246-5 0  9996
2 55921  69.9989 160.7834 0002768 271.1072  88.9769 14.98329714150636
STARLINK-5863           
1 55922U 23037J   25348.20921436  .00049297  00000+0  41370-2 0  9994
2 55922  69.9989 159.9559 0002318 233.7173 126.3772 14.98080311150681
STARLINK-5854           
1 55923U 23037K   25347.87953227  .00000439  00000+0  44616-4 0  9993
2 55923  69.9989 160.8123 0002834 270.0172  90.0662 14.98327848150635
STARLINK-5849           
1 55924U 23037L   25348.15469450  .00000276  00000+0  30938-4 0  9997
2 55924  69.9998 140.2897 0003349 268.6003  91.4773 14.98328412151169
STARLINK-5922           
1 55925U 23037M   25347.86701256 -.00000873  00000+0 -65397-4 0  9990
2 55925  69.9988 160.7680 0002821 273.8387  86.2449 14.98331518150637
STARLINK-5921           
1 55926U 23037N   25348.14636101 -.00000215  00000+0 -10239-4 0  9994
2 55926  69.9998 140.2622 0003063 268.5410  91.5398 14.98329429151164
STARLINK-5919           
1 55927U 23037P   25348.19263798  .00001263  00000+0  11360-3 0  9995
2 55927  69.9989 159.8992 0002870 269.8441  90.2390 14.98328832150685
STARLINK-5930           
1 55928U 23037Q   25347.92125705 -.00001018  00000+0 -77550-4 0  9995
2 55928  69.9991 160.5559 0002874 271.2164  88.8666 14.98321475150641
STARLINK-5896           
1 55930U 23037S   25347.85009158 -.00003307  00000+0 -26931-3 0  9992
2 55930  69.9991 140.8365 0003208 274.9680  85.1112 14.98348593151125
STARLINK-5897           
1 55931U 23037T   25347.91709017  .00004103  00000+0  35144-3 0  9990
2 55931  69.9998 160.5411 0003154 266.5141  93.5657 14.98332219150644
STARLINK-5848           
1 55932U 23037U   25348.34220810  .00004282  00000+0  36646-3 0  9994
2 55932  69.9990 119.4580 0003236 273.2353  86.8436 14.98325512151692
STARLINK-5852           
1 55933U 23037V   25348.14216587 -.00011744  00000+0 -97693-3 0  9991
2 55933  69.9994 140.2498 0003578 275.7956  84.2795 14.98373076151162
STARLINK-5927           
1 55934U 23037W   25347.85025437 -.00000006  00000+0  73210-5 0  9990
2 55934  69.9992 140.8326 0003147 272.4099  87.6699 14.98329549151123
