[{"OBJECT_NAME":"STARLINK-5867","OBJECT_ID":"2023-037E","EPOCH":"2025-12-14T05:31:15.436128","MEAN_MOTION":14.98303781,"ECCENTRICITY":0.00035483,"INCLINATION":69.9997,"RA_OF_ASC_NODE":160.0316,"ARG_OF_PERICENTER":268.634,"MEAN_ANOMALY":91.4413,"EPHEMERIS_TYPE":0,"CLASSIFICATION_TYPE":"U","NORAD_CAT_ID":55918,"ELEMENT_SET_NO":999,"REV_AT_EPOCH":15068,"BSTAR":-0.00030135999,"MEAN_MOTION_DOT":-3.685e-5,"MEAN_MOTION_DDOT":0},{"OBJECT_NAME":"STARLINK-5871","OBJECT_ID":"2023-037F","EPOCH":"2025-12-14T05:19:27.504768","MEAN_MOTION":14.98332258,"ECCENTRICITY":0.00029205,"INCLINATION":69.9989,"RA_OF_ASC_NODE":160.0012,"ARG_OF_PERICENTER":269.3737,"MEAN_ANOMALY":90.7087,"EPHEMERIS_TYPE":0,"CLASSIFICATION_TYPE":"U","NORAD_CAT_ID":55919,"ELEMENT_SET_NO":999,"REV_AT_EPOCH":15068,"BSTAR":-7.1821369e-5,"MEAN_MOTION_DOT":-9.5e-6,"MEAN_MOTION_DDOT":0},{"OBJECT_NAME":"STARLINK-5862","OBJECT_ID":"2023-037G","EPOCH":"2025-12-14T03:48:46.450944","MEAN_MOTION":14.98326974,"ECCENTRICITY":0.00031067,"INCLINATION":69.9996,"RA_OF_ASC_NODE":140.306,"ARG_OF_PERICENTER":270.1563,"MEAN_ANOMALY":89.924,"EPHEMERIS_TYPE":0,"CLASSIFICATION_TYPE":"U","NORAD_CAT_ID":55920,"ELEMENT_SET_NO":999,"REV_AT_EPOCH":15116,"BSTAR":1.1801932e-5,"MEAN_MOTION_DOT":4.8e-7,"MEAN_MOTION_DDOT":0},{"OBJECT_NAME":"STARLINK-5861","OBJECT_ID":"2023-037H","EPOCH":"2025-12-13T20:54:30.060864","MEAN_MOTION":14.98329714,"ECCENTRICITY":0.00027686,"INCLINATION":69.9989,"RA_OF_ASC_NODE":160.7834,"ARG_OF_PERICENTER":271.1072,"MEAN_ANOMALY":88.9769,"EPHEMERIS_TYPE":0,"CLASSIFICATION_TYPE":"U","NORAD_CAT_ID":55921,"ELEMENT_SET_NO":999,"REV_AT_EPOCH":15063,"BSTAR":6.624618e-6,"MEAN_MOTION_DOT":-1.4e-7,"MEAN_MOTION_DDOT":0},{"OBJECT_NAME":"STARLINK-5863","OBJECT_ID":"2023-037J","EPOCH":"2025-12-14T05:01:16.120704","MEAN_MOTION":14.98080311,"ECCENTRICITY":0.0002318,"INCLINATION":69.9989,"RA_OF_ASC_NODE":159.9559,"ARG_OF_PERICENTER":233.7173,"MEAN_ANOMALY":126.3772,"EPHEMERIS_TYPE":0,"CLASSIFICATION_TYPE":"U","NORAD_CAT_ID":55922,"ELEMENT_SET_NO":999,"REV_AT_EPOCH":15068,"BSTAR":0.0041369987,"MEAN_MOTION_DOT":0.00049297,"MEAN_MOTION_DDOT":0},{"OBJECT_NAME":"STARLINK-5854","OBJECT_ID":"2023-037K","EPOCH":"2025-12-13T21:06:31.588128","MEAN_MOTION":14.98327848,"ECCENTRICITY":0.00028341,"INCLINATION":69.9989,"RA_OF_ASC_NODE":160.8123,"ARG_OF_PERICENTER":270.0172,"MEAN_ANOMALY":90.0662,"EPHEMERIS_TYPE":0,"CLASSIFICATION_TYPE":"U","NORAD_CAT_ID":55923,"ELEMENT_SET_NO":999,"REV_AT_EPOCH":15063,"BSTAR":4.4615792e-5,"MEAN_MOTION_DOT":4.39e-6,"MEAN_MOTION_DDOT":0},{"OBJECT_NAME":"STARLINK-5849","OBJECT_ID":"2023-037L","EPOCH":"2025-12-14T03:42:45.604800","MEAN_MOTION":14.98328412,"ECCENTRICITY":0.00033492,"INCLINATION":69.9998,"RA_OF_ASC_NODE":140.2897,"ARG_OF_PERICENTER":268.6003,"MEAN_ANOMALY":91.4773,"EPHEMERIS_TYPE":0,"CLASSIFICATION_TYPE":"U","NORAD_CAT_ID":55924,"ELEMENT_SET_NO":999,"REV_AT_EPOCH":15116,"BSTAR":3.0938404e-5,"MEAN_MOTION_DOT":2.76e-6,"MEAN_MOTION_DDOT":0},{"OBJECT_NAME":"STARLINK-5922","OBJECT_ID":"2023-037M","EPOCH":"2025-12-13T20:48:29.885184","MEAN_MOTION":14.98331518,"ECCENTRICITY":0.00028217,"INCLINATION":69.9988,"RA_OF_ASC_NODE":160.768,"ARG_OF_PERICENTER":273.8387,"MEAN_ANOMALY":86.2449,"EPHEMERIS_TYPE":0,"CLASSIFICATION_TYPE":"U","NORAD_CAT_ID":55925,"ELEMENT_SET_NO":999,"REV_AT_EPOCH":15063,"BSTAR":-6.5396684e-5,"MEAN_MOTION_DOT":-8.73e-6,"MEAN_MOTION_DDOT":0},{"OBJECT_NAME":"STARLINK-5921","OBJECT_ID":"2023-037N","EPOCH":"2025-12-14T03:30:45.591264","MEAN_MOTION":14.98329429,"ECCENTRICITY":0.00030633,"INCLINATION":69.9998,"RA_OF_ASC_NODE":140.2622,"ARG_OF_PERICENTER":268.541,"MEAN_ANOMALY":91.5398,"EPHEMERIS_TYPE":0,"CLASSIFICATION_TYPE":"U","NORAD_CAT_ID":55926,"ELEMENT_SET_NO":999,"REV_AT_EPOCH":15116,"BSTAR":-1.0239229e-5,"MEAN_MOTION_DOT":-2.15e-6,"MEAN_MOTION_DDOT":0},{"OBJECT_NAME":"STARLINK-5919","OBJECT_ID":"2023-037P","EPOCH":"2025-12-14T04:37:23.921472","MEAN_MOTION":14.98328832,"ECCENTRICITY":0.00028702,"INCLINATION":69.9989,"RA_OF_ASC_NODE":159.8992,"ARG_OF_PERICENTER":269.8441,"MEAN_ANOMALY":90.239,"EPHEMERIS_TYPE":0,"CLASSIFICATION_TYPE":"U","NORAD_CAT_ID":55927,"ELEMENT_SET_NO":999,"REV_AT_EPOCH":15068,"BSTAR":0.00011359582,"MEAN_MOTION_DOT":1.263e-5,"MEAN_MOTION_DDOT":0},{"OBJECT_NAME":"STARLINK-5930","OBJECT_ID":"2023-037Q","EPOCH":"2025-12-13T22:06:36.609120","MEAN_MOTION":14.98321475,"ECCENTRICITY":0.0002874,"INCLINATION":69.9991,"RA_OF_ASC_NODE":160.5559,"ARG_OF_PERICENTER":271.2164,"MEAN_ANOMALY":88.8666,"EPHEMERIS_TYPE":0,"CLASSIFICATION_TYPE":"U","NORAD_CAT_ID":55928,"ELEMENT_SET_NO":999,"REV_AT_EPOCH":15064,"BSTAR":-7.7550147e-5,"MEAN_MOTION_DOT":-1.018e-5,"MEAN_MOTION_DDOT":0},{"OBJECT_NAME":"STARLINK-5896","OBJECT_ID":"2023-037S","EPOCH":"2025-12-13T20:24:07.912512","MEAN_MOTION":14.98348593,"ECCENTRICITY":0.00032089,"INCLINATION":69.9991,"RA_OF_ASC_NODE":140.8365,"ARG_OF_PERICENTER":274.968,"MEAN_ANOMALY":85.1112,"EPHEMERIS_TYPE":0,"CLASSIFICATION_TYPE":"U","NORAD_CAT_ID":55930,"ELEMENT_SET_NO":999,"REV_AT_EPOCH":15112,"BSTAR":-0.00026931371,"MEAN_MOTION_DOT":-3.307e-5,"MEAN_MOTION_DDOT":0},{"OBJECT_NAME":"STARLINK-5897","OBJECT_ID":"2023-037T","EPOCH":"2025-12-13T22:00:36.590688","MEAN_MOTION":14.98332219,"ECCENTRICITY":0.00031544,"INCLINATION":69.9998,"RA_OF_ASC_NODE":160.5411,"ARG_OF_PERICENTER":266.5141,"MEAN_ANOMALY":93.5657,"EPHEMERIS_TYPE":0,"CLASSIFICATION_TYPE":"U","NORAD_CAT_ID":55931,"ELEMENT_SET_NO":999,"REV_AT_EPOCH":15064,"BSTAR":0.00035143829,"MEAN_MOTION_DOT":4.103e-5,"MEAN_MOTION_DDOT":0},{"OBJECT_NAME":"STARLINK-5848","OBJECT_ID":"2023-037U","EPOCH":"2025-12-14T08:12:46.779840","MEAN_MOTION":14.98325512,"ECCENTRICITY":0.00032368,"INCLINATION":69.999,"RA_OF_ASC_NODE":119.458,"ARG_OF_PERICENTER":273.2353,"MEAN_ANOMALY":86.8436,"EPHEMERIS_TYPE":0,"CLASSIFICATION_TYPE":"U","NORAD_CAT_ID":55932,"ELEMENT_SET_NO":999,"REV_AT_EPOCH":15169,"BSTAR":0.00036646021,"MEAN_MOTION_DOT":4.282e-5,"MEAN_MOTION_DDOT":0},{"OBJECT_NAME":"STARLINK-5852","OBJECT_ID":"2023-037V","EPOCH":"2025-12-14T03:24:43.131168","MEAN_MOTION":14.98373076,"ECCENTRICITY":0.00035784,"INCLINATION":69.9994,"RA_OF_ASC_NODE":140.2498,"ARG_OF_PERICENTER":275.7956,"MEAN_ANOMALY":84.2795,"EPHEMERIS_TYPE":0,"CLASSIFICATION_TYPE":"U","NORAD_CAT_ID":55933,"ELEMENT_SET_NO":999,"REV_AT_EPOCH":15116,"BSTAR":-0.00097692703,"MEAN_MOTION_DOT":-0.00011744,"MEAN_MOTION_DDOT":0},{"OBJECT_NAME":"STARLINK-5927","OBJECT_ID":"2023-037W","EPOCH":"2025-12-13T20:24:21.977568","MEAN_MOTION":14.98329549,"ECCENTRICITY":0.00031475,"INCLINATION":69.9992,"RA_OF_ASC_NODE":140.8326,"ARG_OF_PERICENTER":272.4099,"MEAN_ANOMALY":87.6699,"EPHEMERIS_TYPE":0,"CLASSIFICATION_TYPE":"U","NORAD_CAT_ID":55934,"ELEMENT_SET_NO":999,"REV_AT_EPOCH":15112,"BSTAR":7.321004e-6,"MEAN_MOTION_DOT":-6.0e-8,"MEAN_MOTION_DDOT":0}]
